     2.11           N: GPS NAV DATA                         RINEX VERSION / TYPE
teqc  2019Feb25                         20251110 04:31:18UTCPGM / RUN BY / DATE
Linux 2.6.32-573.12.1.x86_64|x86_64|gcc|Linux 64|=+         COMMENT
    3.0734D-08  0.0000D+00 -1.1921D-07  1.7881D-07          ION ALPHA
    1.4131D+05 -9.8304D+04  6.5536D+04 -3.9322D+05          ION BETA
   -1.862645149231D-09-2.664535259100D-15   233472     2392 DELTA-UTC: A0,A1,T,W
                                                            END OF HEADER
19 25 11 10  4  0  0.0 6.740135140717D-04 2.273736754432D-12 0.000000000000D+00
    8.800000000000D+01 8.475000000000D+01 4.451971156754D-09-9.223069171680D-01
    4.384666681290D-06 1.085039402824D-02 9.234994649887D-06 5.153691154480D+03
    1.008000000000D+05-2.980232238770D-08-2.161286072869D+00-1.899898052216D-07
    9.601371258166D-01 2.018125000000D+02 2.892603548846D+00-7.985689778890D-09
   -9.893269237232D-11 1.000000000000D+00 2.392000000000D+03 0.000000000000D+00
    2.800000000000D+00 0.000000000000D+00-1.536682248116D-08 8.800000000000D+01
    9.361800000000D+04 4.000000000000D+00
17 25 11 10  4  0  0.0 3.836303949356D-05-1.341504685115D-11 0.000000000000D+00
    8.300000000000D+01 9.643750000000D+01 4.348395413837D-09-2.806236298914D+00
    5.075708031654D-06 1.313214201946D-02 9.492039680481D-06 5.153792383194D+03
    1.008000000000D+05 2.793967723846D-08-2.205265059330D+00 1.695007085800D-07
    9.609678877355D-01 1.934062500000D+02-1.166367044212D+00-7.653175928354D-09
   -1.978653847446D-10 1.000000000000D+00 2.392000000000D+03 0.000000000000D+00
    2.000000000000D+00 0.000000000000D+00-1.117587089539D-08 8.300000000000D+01
    9.361800000000D+04 4.000000000000D+00
24 25 11 10  4  0  0.0-2.424349077046D-04 1.307398633799D-11 0.000000000000D+00
    7.800000000000D+01-1.756250000000D+01 5.133428113600D-09 1.702918321909D+00
   -1.123175024986D-06 1.769298850559D-02 8.240342140198D-06 5.153658849716D+03
    1.008000000000D+05-3.091990947723D-07 1.819084472879D+00-3.650784492493D-07
    9.342532510322D-01 2.094375000000D+02 1.114000939205D+00-8.298917111780D-09
    3.825159333240D-10 1.000000000000D+00 2.392000000000D+03 0.000000000000D+00
    2.000000000000D+00 0.000000000000D+00 2.328306436539D-09 7.800000000000D+01
    9.361800000000D+04 4.000000000000D+00
22 25 11 10  4  0  0.0-7.972819730639D-05 3.069544618484D-12 0.000000000000D+00
    6.000000000000D+01 1.668750000000D+01 4.658408327120D-09-2.170138152130D+00
    1.121312379837D-06 1.258158357814D-02 7.994472980499D-06 5.153633394241D+03
    1.008000000000D+05-5.029141902924D-08 3.063279635195D+00 2.719461917877D-07
    9.585444220341D-01 2.240000000000D+02-1.016830720978D+00-7.823183009831D-09
   -2.528676758108D-10 1.000000000000D+00 2.392000000000D+03 0.000000000000D+00
    2.000000000000D+00 0.000000000000D+00-1.117587089539D-08 6.000000000000D+01
    9.361800000000D+04 4.000000000000D+00
14 25 11 10  4  0  0.0 7.128976285458D-04 3.183231456205D-12 0.000000000000D+00
    6.800000000000D+01 9.812500000000D+00 5.150571684842D-09-1.101907742995D-01
    5.736947059631D-07 6.309308577329D-03 7.500872015953D-06 5.153633399963D+03
    1.008000000000D+05 7.636845111847D-08 2.990002892228D+00 5.587935447693D-08
    9.432275132120D-01 2.259687500000D+02-2.764401704587D+00-8.266058600234D-09
   -2.117945363783D-10 1.000000000000D+00 2.392000000000D+03 0.000000000000D+00
    2.000000000000D+00 0.000000000000D+00-7.916241884232D-09 5.800000000000D+02
    9.361800000000D+04 4.000000000000D+00
13 25 11 10  4  0  0.0 6.945608183742D-04-1.023181539495D-12 0.000000000000D+00
    8.100000000000D+01-8.128125000000D+01 3.900519615155D-09-2.988530576363D+00
   -4.142522811890D-06 9.842296713032D-03 9.080395102501D-06 5.153678487778D+03
    1.008000000000D+05 5.774199962616D-08 1.025892467122D+00-5.774199962616D-08
    9.750155951646D-01 2.112187500000D+02 1.007684511796D+00-7.491383474763D-09
    2.857261873569D-10 1.000000000000D+00 2.392000000000D+03 0.000000000000D+00
    2.000000000000D+00 0.000000000000D+00-1.164153218269D-08 8.100000000000D+01
    9.361800000000D+04 4.000000000000D+00
12 25 11 10  4  0  0.0-6.031766533852D-04-7.958078640513D-13 0.000000000000D+00
    4.800000000000D+01 1.156250000000D+01 4.760198281365D-09 6.955624970842D-02
    3.669410943985D-07 8.895715931430D-03 7.878988981247D-06 5.153599601746D+03
    1.008000000000D+05-1.117587089539D-07 3.042813551707D+00 3.725290298462D-09
    9.599206783093D-01 2.296250000000D+02 1.522936808225D+00-8.161411384115D-09
   -2.567964108870D-10 1.000000000000D+00 2.392000000000D+03 0.000000000000D+00
    2.000000000000D+00 0.000000000000D+00-1.257285475731D-08 4.800000000000D+01
    9.361800000000D+04 4.000000000000D+00
 6 25 11 10  4  0  0.0-5.687056109309D-04-7.958078640513D-12 0.000000000000D+00
    9.300000000000D+01 8.293750000000D+01 4.019095982909D-09 1.713744310684D+00
    4.393979907036D-06 3.652609884739D-03 3.812834620476D-06 5.153682178497D+03
    1.008000000000D+05 4.097819328308D-08-1.191959141448D+00-6.705522537231D-08
    9.875241694083D-01 3.152500000000D+02-7.015502003018D-01-8.007833558410D-09
   -5.357366012941D-12 1.000000000000D+00 2.392000000000D+03 0.000000000000D+00
    2.000000000000D+00 0.000000000000D+00 3.725290298462D-09 9.300000000000D+01
    9.372600000000D+04 4.000000000000D+00
15 25 11 10  4  0  0.0 3.563314676285D-04 3.637978807092D-12 0.000000000000D+00
    9.300000000000D+01-9.784375000000D+01 4.625549815573D-09 2.569171555005D+00
   -5.038455128670D-06 1.668021990918D-02 7.728114724159D-06 5.153656995773D+03
    1.008000000000D+05 1.937150955200D-07 7.110385026362D-01-7.264316082001D-08
    9.412608305146D-01 2.172812500000D+02 1.481350708089D+00-7.814254066476D-09
    5.857386840816D-11 1.000000000000D+00 2.392000000000D+03 0.000000000000D+00
    2.800000000000D+00 0.000000000000D+00-1.071020960808D-08 9.300000000000D+01
    9.382200000000D+04 4.000000000000D+00
32 25 11 10  4  0  0.0-2.544759772718D-04 1.523403625470D-11 0.000000000000D+00
    1.800000000000D+01-8.425000000000D+01 4.104099523647D-09-1.967767860744D+00
   -4.395842552185D-06 8.831161307171D-03 9.240582585335D-06 5.153684539795D+03
    1.008000000000D+05 1.732259988785D-07 8.689205935733D-01-1.490116119385D-07
    9.665372783058D-01 2.051875000000D+02-2.055395019613D+00-7.599959425958D-09
    1.810789712374D-10 1.000000000000D+00 2.392000000000D+03 0.000000000000D+00
    2.000000000000D+00 0.000000000000D+00 9.313225746155D-10 1.800000000000D+01
    9.520200000000D+04 4.000000000000D+00
11 25 11 10  4  0  0.0-5.508456379175D-04 1.375610736432D-11 0.000000000000D+00
    1.470000000000D+02 6.871875000000D+01 4.515188075707D-09 2.688424249535D+00
    3.546476364136D-06 2.283880021423D-03 3.824010491371D-06 5.153748168945D+03
    1.008000000000D+05-5.960464477539D-08-1.170682238540D+00-4.842877388000D-08
    9.643681965034D-01 3.056875000000D+02-2.298184941702D+00-8.189984002850D-09
    1.571494030463D-11 1.000000000000D+00 2.392000000000D+03 0.000000000000D+00
    2.000000000000D+00 0.000000000000D+00-8.847564458847D-09 4.030000000000D+02
    9.580200000000D+04 4.000000000000D+00
25 25 11 10  4  0  0.0 4.624384455383D-04-2.046363078989D-12 0.000000000000D+00
    9.000000000000D+00 9.718750000000D+00 5.103426863928D-09 5.984200991706D-03
    4.302710294724D-07 1.265379670076D-02 7.556751370430D-06 5.153767654419D+03
    1.008000000000D+05-1.024454832077D-07 2.950297475686D+00 1.322478055954D-07
    9.481630520998D-01 2.325937500000D+02 1.136604539113D+00-8.388920860798D-09
   -2.403671551140D-10 1.000000000000D+00 2.392000000000D+03 0.000000000000D+00
    2.000000000000D+00 0.000000000000D+00 5.587935447693D-09 9.000000000000D+00
    9.648600000000D+04 4.000000000000D+00
29 25 11 10  4  0  0.0-4.277280531824D-04 5.798028723802D-12 0.000000000000D+00
    4.200000000000D+01 8.565625000000D+01 4.370182035623D-09-2.780985952508D+00
    4.559755325317D-06 3.302903147414D-03 8.720904588699D-06 5.153575551987D+03
    1.008000000000D+05-2.607703208923D-08-2.188856371819D+00 4.842877388000D-08
    9.635732321900D-01 2.164687500000D+02 2.782679511325D+00-7.845683947085D-09
   -1.317912039184D-10 1.000000000000D+00 2.392000000000D+03 0.000000000000D+00
    2.000000000000D+00 0.000000000000D+00-9.778887033463D-09 4.200000000000D+01
    1.005960000000D+05 4.000000000000D+00
12 25 11 10  6  0  0.0-6.031822413206D-04-7.958078640513D-13 0.000000000000D+00
    5.300000000000D+01 1.190625000000D+01 4.692695469602D-09 1.119786255021D+00
    5.029141902924D-07 8.895641891286D-03 7.718801498413D-06 5.153599470139D+03
    1.080000000000D+05-1.452863216400D-07 3.042754663402D+00-1.043081283569D-07
    9.599189520659D-01 2.302500000000D+02 1.522934697234D+00-8.110694985859D-09
   -2.360812623036D-10 1.000000000000D+00 2.392000000000D+03 0.000000000000D+00
    2.000000000000D+00 0.000000000000D+00-1.257285475731D-08 5.300000000000D+01
    1.008180000000D+05 4.000000000000D+00
 6 25 11 10  6  0  0.0-5.687633529305D-04-7.958078640513D-12 0.000000000000D+00
    9.800000000000D+01 9.137500000000D+01 4.089456056545D-09 2.763891314413D+00
    4.826113581657D-06 3.653271123767D-03 3.894791007042D-06 5.153681554794D+03
    1.080000000000D+05 4.470348358154D-08-1.192017555767D+00 9.685754776001D-08
    9.875246082838D-01 3.183437500000D+02-7.015249708166D-01-8.010333662550D-09
    1.339341503235D-10 1.000000000000D+00 2.392000000000D+03 0.000000000000D+00
    2.800000000000D+00 0.000000000000D+00 3.725290298462D-09 9.800000000000D+01
    1.008180000000D+05 4.000000000000D+00
